$$SOE
2460728.500000000, A.D. 2025-Feb-22 00:00:00.0000, -4.634730065855755E+08, 3.399348021991069E+08, -1.897575408119395E+06,
2460735.500000000, A.D. 2025-Mar-01 00:00:00.0000, -4.686259696433875E+08, 3.338362371197219E+08, -3.147850181145027E+06,
2460742.500000000, A.D. 2025-Mar-08 00:00:00.0000, -4.736594345744764E+08, 3.276525638188101E+08, -4.397323124914870E+06,
2460749.500000000, A.D. 2025-Mar-15 00:00:00.0000, -4.785724764537139E+08, 3.213856104281271E+08, -5.645679290948033E+06,
2460756.500000000, A.D. 2025-Mar-22 00:00:00.0000, -4.833641868016465E+08, 3.150372035077116E+08, -6.892605404910371E+06,
2460763.500000000, A.D. 2025-Mar-29 00:00:00.0000, -4.880336739320449E+08, 3.086091666196792E+08, -8.137789832176030E+06,
2460770.500000000, A.D. 2025-Apr-05 00:00:00.0000, -4.925800616265537E+08, 3.021033197920755E+08, -9.380922626767457E+06,
2460777.500000000, A.D. 2025-Apr-12 00:00:00.0000, -4.970024880629952E+08, 2.955214799771597E+08, -1.062169547889765E+07,
2460784.500000000, A.D. 2025-Apr-19 00:00:00.0000, -5.013001051846094E+08, 2.888654616238675E+08, -1.185980161635284E+07,
2460791.500000000, A.D. 2025-Apr-26 00:00:00.0000, -5.054720782378972E+08, 2.821370771622105E+08, -1.309493570150675E+07,
2460798.500000000, A.D. 2025-May-03 00:00:00.0000, -5.095175853645747E+08, 2.753381374191689E+08, -1.432679373302260E+07,
2460805.500000000, A.D. 2025-May-10 00:00:00.0000, -5.134358172183433E+08, 2.684704519749237E+08, -1.555507295430119E+07,
2460812.500000000, A.D. 2025-May-17 00:00:00.0000, -5.172259765691717E+08, 2.615358294185120E+08, -1.677947177549328E+07,
2460819.500000000, A.D. 2025-May-24 00:00:00.0000, -5.208872777206720E+08, 2.545360774485278E+08, -1.799968972952600E+07,
2460826.500000000, A.D. 2025-May-31 00:00:00.0000, -5.244189453223227E+08, 2.474730031298858E+08, -1.921542747504933E+07,
2460833.500000000, A.D. 2025-Jun-07 00:00:00.0000, -5.278202129771824E+08, 2.403484145113629E+08, -2.042638671104723E+07,
2460840.500000000, A.D. 2025-Jun-14 00:00:00.0000, -5.310903240099233E+08, 2.331641229372015E+08, -2.163226984076905E+07,
2460847.500000000, A.D. 2025-Jun-21 00:00:00.0000, -5.342285331786075E+08, 2.259219427821893E+08, -2.283277976395797E+07,
2460854.500000000, A.D. 2025-Jun-28 00:00:00.0000, -5.372341062010025E+08, 2.186236903752611E+08, -2.402761993991314E+07,
2460861.500000000, A.D. 2025-Jul-05 00:00:00.0000, -5.401063186115276E+08, 2.112711842676116E+08, -2.521649440586530E+07,
2460868.500000000, A.D. 2025-Jul-12 00:00:00.0000, -5.428444551402822E+08, 2.038662460399657E+08, -2.639910770723021E+07,
2460875.500000000, A.D. 2025-Jul-19 00:00:00.0000, -5.454478094248933E+08, 1.964107010744478E+08, -2.757516480410247E+07,
2460882.500000000, A.D. 2025-Jul-26 00:00:00.0000, -5.479156838451869E+08, 1.889063792349133E+08, -2.874437097776518E+07,
2460889.500000000, A.D. 2025-Aug-02 00:00:00.0000, -5.502473894151844E+08, 1.813551154776933E+08, -2.990643174129938E+07,
2460896.500000000, A.D. 2025-Aug-09 00:00:00.0000, -5.524422457089688E+08, 1.737587503784326E+08, -3.106105275746624E+07,
2460903.500000000, A.D. 2025-Aug-16 00:00:00.0000, -5.544995807435095E+08, 1.661191305121760E+08, -3.220793977588971E+07,
2460910.500000000, A.D. 2025-Aug-23 00:00:00.0000, -5.564187305258484E+08, 1.584381087035798E+08, -3.334679861479747E+07,
2460917.500000000, A.D. 2025-Aug-30 00:00:00.0000, -5.581990379357214E+08, 1.507175448615699E+08, -3.447733515887076E+07,
2460924.500000000, A.D. 2025-Sep-06 00:00:00.0000, -5.598398523619906E+08, 1.429593083988003E+08, -3.559925516114047E+07,
2460931.500000000, A.D. 2025-Sep-13 00:00:00.0000, -5.613405317645698E+08, 1.351652797533487E+08, -3.671226389847219E+07,
2460938.500000000, A.D. 2025-Sep-20 00:00:00.0000, -5.627004438892407E+08, 1.273373493691464E+08, -3.781606611508244E+07,
2460945.500000000, A.D. 2025-Sep-27 00:00:00.0000, -5.639189655763538E+08, 1.194774172472411E+08, -3.891036609654371E+07,
2460952.500000000, A.D. 2025-Oct-04 00:00:00.0000, -5.649954821801697E+08, 1.115873936070159E+08, -3.999486764503317E+07,
2460959.500000000, A.D. 2025-Oct-11 00:00:00.0000, -5.659293874733760E+08, 1.036691997147341E+08, -4.106927399864595E+07,
2460966.500000000, A.D. 2025-Oct-18 00:00:00.0000, -5.667200837537069E+08, 9.572476860590751E+07, -4.213328774326444E+07,
2460973.500000000, A.D. 2025-Oct-25 00:00:00.0000, -5.673669820131766E+08, 8.775604571343626E+07, -4.318661072887891E+07,
2460980.500000000, A.D. 2025-Nov-01 00:00:00.0000, -5.678695021302630E+08, 7.976498941770886E+07, -4.422894399269307E+07,
2460987.500000000, A.D. 2025-Nov-08 00:00:00.0000, -5.682270730503194E+08, 7.175357148763698E+07, -4.525998769476472E+07,
2460994.500000000, A.D. 2025-Nov-15 00:00:00.0000, -5.684391328065473E+08, 6.372377735421364E+07, -4.627944108463228E+07,
2461001.500000000, A.D. 2025-Nov-22 00:00:00.0000, -5.685051279795146E+08, 5.567760643679929E+07, -4.728700251809025E+07,
2461008.500000000, A.D. 2025-Nov-29 00:00:00.0000, -5.684245127494543E+08, 4.761707365734736E+07, -4.828236941761200E+07,
2461015.500000000, A.D. 2025-Dec-06 00:00:00.0000, -5.681967498202294E+08, 3.954421200687210E+07, -4.926523797905910E+07,
2461022.500000000, A.D. 2025-Dec-13 00:00:00.0000, -5.678213127832899E+08, 3.146107279464067E+07, -5.023530294037613E+07,
2461029.500000000, A.D. 2025-Dec-20 00:00:00.0000, -5.672976864295624E+08, 2.336972460470305E+07, -5.119225764928865E+07,
2461036.500000000, A.D. 2025-Dec-27 00:00:00.0000, -5.666253660829884E+08, 1.527225355202708E+07, -5.213579411967034E+07,
2461043.500000000, A.D. 2026-Jan-03 00:00:00.0000, -5.658038574153321E+08, 7.170764223010980E+06, -5.306560299304786E+07,
2461050.500000000, A.D. 2026-Jan-10 00:00:00.0000, -5.648326766336511E+08, -9.326193779297061E+05, -5.398137347090448E+07,
2461057.500000000, A.D. 2026-Jan-17 00:00:00.0000, -5.637113508090341E+08, -9.035752966267645E+06, -5.488279324665460E+07,
2461064.500000000, A.D. 2026-Jan-24 00:00:00.0000, -5.624394182696772E+08, -1.713647117602268E+07, -5.576954844256541E+07,
2461071.500000000, A.D. 2026-Jan-31 00:00:00.0000, -5.610164290358552E+08, -2.523258682557323E+07, -5.664132355434900E+07,
2461078.500000000, A.D. 2026-Feb-07 00:00:00.0000, -5.594419452363878E+08, -3.332189030701017E+07, -5.749780141373006E+07,
2461085.500000000, A.D. 2026-Feb-14 00:00:00.0000, -5.577155412547386E+08, -4.140214911341284E+07, -5.833866319344746E+07,
2461092.500000000, A.D. 2026-Feb-21 00:00:00.0000, -5.558368032183665E+08, -4.947110692618620E+07, -5.916358844306730E+07,
2461099.500000000, A.D. 2026-Feb-28 00:00:00.0000, -5.538053289172915E+08, -5.752648110847875E+07, -5.997225496184635E+07,
2461106.500000000, A.D. 2026-Mar-07 00:00:00.0000, -5.516207302120595E+08, -6.556596055467139E+07, -6.076433847934797E+07,
2461113.500000000, A.D. 2026-Mar-14 00:00:00.0000, -5.492826351577157E+08, -7.358720622851600E+07, -6.153951258930434E+07,
2461120.500000000, A.D. 2026-Mar-21 00:00:00.0000, -5.467906880624119E+08, -8.158785149126226E+07, -6.229744886340074E+07,
2461127.500000000, A.D. 2026-Mar-28 00:00:00.0000, -5.441445494906738E+08, -8.956550119100493E+07, -6.303781687639789E+07,
2461134.500000000, A.D. 2026-Apr-04 00:00:00.0000, -5.413438968162391E+08, -9.751773047953524E+07, -6.376028416607114E+07,
2461141.500000000, A.D. 2026-Apr-11 00:00:00.0000, -5.383884250524250E+08, -1.054420837173473E+08, -6.446451618257603E+07,
2461148.500000000, A.D. 2026-Apr-18 00:00:00.0000, -5.352778478027070E+08, -1.133360734740689E+08, -6.515017624245738E+07,
2461155.500000000, A.D. 2026-Apr-25 00:00:00.0000, -5.320118982875461E+08, -1.211971796102464E+08, -6.581692549034992E+07,
2461162.500000000, A.D. 2026-May-02 00:00:00.0000, -5.285903304186789E+08, -1.290228484708687E+08, -6.646442287370425E+07,
2461169.500000000, A.D. 2026-May-09 00:00:00.0000, -5.250129197983605E+08, -1.368104922576883E+08, -6.709232514756358E+07,
2461176.500000000, A.D. 2026-May-16 00:00:00.0000, -5.212794642678694E+08, -1.445574884428065E+08, -6.770028693301621E+07,
2461183.500000000, A.D. 2026-May-23 00:00:00.0000, -5.173897839557475E+08, -1.522611782019424E+08, -6.828796075084153E+07,
2461190.500000000, A.D. 2026-May-30 00:00:00.0000, -5.133437229065965E+08, -1.599188635488646E+08, -6.885499681402110E+07,
2461197.500000000, A.D. 2026-Jun-06 00:00:00.0000, -5.091411526109268E+08, -1.675278064459803E+08, -6.940104281825428E+07,
2461204.500000000, A.D. 2026-Jun-13 00:00:00.0000, -5.047819737739635E+08, -1.750852296930806E+08, -6.992574405128211E+07,
2461211.500000000, A.D. 2026-Jun-20 00:00:00.0000, -5.002661168273190E+08, -1.825883166683215E+08, -7.042874353643380E+07,
2461218.500000000, A.D. 2026-Jun-27 00:00:00.0000, -4.955935428837705E+08, -1.900342102619562E+08, -7.090968208272472E+07,
2461225.500000000, A.D. 2026-Jul-04 00:00:00.0000, -4.907642451372567E+08, -1.974200117792411E+08, -7.136819830529329E+07,
2461232.500000000, A.D. 2026-Jul-11 00:00:00.0000, -4.857782504566613E+08, -2.047427799465566E+08, -7.180392865088546E+07,
2461239.500000000, A.D. 2026-Jul-18 00:00:00.0000, -4.806356210836242E+08, -2.119995299975992E+08, -7.221650743557039E+07,
2461246.500000000, A.D. 2026-Jul-25 00:00:00.0000, -4.753364564134643E+08, -2.191872328398970E+08, -7.260556689765228E+07,
2461253.500000000, A.D. 2026-Aug-01 00:00:00.0000, -4.698808948152437E+08, -2.263028143528834E+08, -7.297073727521627E+07,
2461260.500000000, A.D. 2026-Aug-08 00:00:00.0000, -4.642691152805948E+08, -2.333431548564095E+08, -7.331164693205981E+07,
2461267.500000000, A.D. 2026-Aug-15 00:00:00.0000, -4.585013384907379E+08, -2.403050883021143E+08, -7.362792253426188E+07,
2461274.500000000, A.D. 2026-Aug-22 00:00:00.0000, -4.525778280667535E+08, -2.471853999691754E+08, -7.391918910858484E+07,
2461281.500000000, A.D. 2026-Aug-29 00:00:00.0000, -4.464988942959035E+08, -2.539808240406325E+08, -7.418506988573661E+07,
2461288.500000000, A.D. 2026-Sep-05 00:00:00.0000, -4.402648982048231E+08, -2.606880439328486E+08, -7.442518635963859E+07,
$$EOE